OBJECT B                
1 51825U 22019B   25155.94020263  .00020818  00000+0  51588-3 0  9997
2 51825  97.3853 232.5273 0011445  72.8318 287.4180 15.40359065181183
